GLOBALSTAR M068         
1 32266U 07048D   24264.82463981 -.00000119  00000+0 -85099-4 0  9994
2 32266  51.9899  43.3480 0000281 213.2170 298.7602 12.62800261783528
GLOBALSTAR M079         
1 37188U 10054A   24264.94682312 -.00000088  00000+0  90240-4 0  9995
2 37188  52.0020 239.3984 0000660  61.8031 338.4306 12.62264315642457
GLOBALSTAR M074         
1 37189U 10054B   24265.22479147 -.00000097  00000+0  38493-4 0  9990
2 37189  51.9998 237.9119 0000430  77.3170  29.1858 12.62289237643160
GLOBALSTAR M076         
1 37190U 10054C   24265.23197755 -.00000080  00000+0  13450-3 0  9992
2 37190  52.0013 238.0440 0000731  92.0724 282.5020 12.62270278643176
GLOBALSTAR M077         
1 37191U 10054D   24264.54016343 -.00000078  00000+0  14479-3 0  9998
2 37191  52.0058 196.9257 0000563  64.7597 106.2270 12.62263872643093
GLOBALSTAR M075         
1 37192U 10054E   24265.09146903 -.00000091  00000+0  73352-4 0  9997
2 37192  51.9934 280.8780 0000381  78.7090 318.8037 12.62264955642397
GLOBALSTAR M073         
1 37193U 10054F   24265.19473958 -.00000080  00000+0  13457-3 0  9999
2 37193  52.0046 194.1743 0000663  74.7271  72.2333 12.62269706643918
GLOBALSTAR M083         
1 37739U 11033A   24264.88838154 -.00000064  00000+0  22296-3 0  9994
2 37739  51.9846 144.2061 0000861  62.0513  72.9588 12.62264859612849
GLOBALSTAR M088         
1 37740U 11033B   24265.18670594 -.00000106  00000+0 -14862-4 0  9991
2 37740  51.9741  49.0110 0000846  84.3325  87.9651 12.62267746608719
GLOBALSTAR M091         
1 37741U 11033C   24264.80348837 -.00000084  00000+0  11136-3 0  9996
2 37741  52.0020  13.2561 0000685  76.5505  91.4823 12.62267182609164
GLOBALSTAR M085         
1 37742U 11033D   24265.15456115 -.00000069  00000+0  19603-3 0  9995
2 37742  51.9883 323.4654 0000475  75.5368 309.9111 12.62266116610213
GLOBALSTAR M081         
1 37743U 11033E   24265.17942084 -.00000074  00000+0  16466-3 0  9993
2 37743  51.9976 326.0105 0000696  84.2242 294.2476 12.62269499610251
GLOBALSTAR M089         
1 37744U 11033F   24264.77790453 -.00000081  00000+0  12762-3 0  9993
2 37744  51.9919 281.5139 0000609 119.4995  51.9082 12.62269087610660
GLOBALSTAR M084         
1 38040U 11080A   24265.18544385 -.00000061  00000+0  23986-3 0  9990
2 38040  51.9994 147.4147 0000700  95.0415  70.1031 12.62267743588972
GLOBALSTAR M080         
1 38041U 11080B   24264.90858954 -.00000066  00000+0  21279-3 0  9998
2 38041  52.0048 149.7699 0000976  97.1646   9.1591 12.62265765588780
GLOBALSTAR M082         
1 38042U 11080C   24265.01373066 -.00000088  00000+0  88499-4 0  9990
2 38042  52.0061 104.8664 0000716  43.5363 120.9210 12.62266875589675
GLOBALSTAR M092         
1 38043U 11080D   24264.88731325 -.00000072  00000+0  17759-3 0  9994
2 38043  52.0073 195.6132 0000430  71.3972 358.4696 12.62266209587940
GLOBALSTAR M090         
1 38044U 11080E   24264.95876479 -.00000096  00000+0  42374-4 0  9991
2 38044  51.9871  99.1886 0000763  66.7945  87.8104 12.62267913589656
GLOBALSTAR M086         
1 38045U 11080F   24264.90244184 -.00000093  00000+0  62110-4 0  9996
2 38045  51.9883  99.8896 0001754  83.0499  56.1404 12.62267291589656
GLOBALSTAR M097         
1 39072U 13005A   24264.74029250 -.00000099  00000+0  26666-4 0  9995
2 39072  52.0071  14.6583 0000855  82.2779 277.8185 12.62270467536782
GLOBALSTAR M093         
1 39073U 13005B   24264.63422483 -.00000084  00000+0  11018-3 0  9997
2 39073  51.9838   8.7130 0000744  78.0932 282.0018 12.62264195536723
GLOBALSTAR M094         
1 39074U 13005C   24265.18859177 -.00000096  00000+0  41584-4 0  9998
2 39074  51.9946 281.1402 0000556  63.9552 296.1372 12.62268418538425
GLOBALSTAR M096         
1 39075U 13005D   24264.56834056 -.00000063  00000+0  22933-3 0  9999
2 39075  52.0093 331.3329 0000609  71.4355 288.6578 12.62270364537595
GLOBALSTAR M078         
1 39076U 13005E   24264.77926297 -.00000102  00000+0  12241-4 0  9998
2 39076  51.9876  55.5611 0000482 348.4369  11.6487 12.62274856535897
GLOBALSTAR M095         
1 39077U 13005F   24264.80587425 -.00000116  00000+0 -67877-4 0  9990
2 39077  51.9806  52.8122 0000773  46.9110 313.1821 12.62264810536112
GLOBALSTAR M087         
1 52888U 22064A   24265.20193233 -.00000095  00000+0  62407-4 0  9994
2 52888  51.9744 233.5791 0008895 248.0849 111.9106 13.37586013110376
